OBJECT_NAME,OBJECT_ID,EPOCH,MEAN_MOTION,ECCENTRICITY,INCLINATION,RA_OF_ASC_NODE,ARG_OF_PERICENTER,MEAN_ANOMALY,EPHEMERIS_TYPE,CLASSIFICATION_TYPE,NORAD_CAT_ID,ELEMENT_SET_NO,REV_AT_EPOCH,BSTAR,MEAN_MOTION_DOT,MEAN_MOTION_DDOT
FENGYUN 3E,2021-062A,2026-07-17T03:36:10.022400,14.19905834,.0002171,98.7496,201.2251,35.7785,324.3536,0,U,49008,999,26083,-.19985E-4,-.86E-6,0
ISS (NAUKA),2021-066A,2026-07-17T04:27:26.083584,15.49030061,.0006784,51.6315,151.6351,305.3594,54.6760,0,U,49044,999,57551,.74136E-4,.364E-4,0
STARLINK-3100,2021-082Q,2026-07-16T17:57:47.439072,14.98323421,.0003131,70.0006,329.0431,271.3759,88.7041,0,U,49144,999,26531,.58786E-4,.608E-5,0
CUTE,2021-088D,2026-07-16T20:06:54.944352,16.41647044,.0014216,97.3907,300.4441,277.7997,82.1689,0,U,49263,999,26730,.41832E-3,.8921003E-1,.25505E-5
2021-091B,2021-091B,2026-07-17T04:07:57.665280,15.18687302,.0011871,97.4471,25.2924,300.4635,59.5426,0,U,49316,999,26353,.71741E-4,.1421E-4,0
SDGSAT 1,2021-100A,2026-07-17T04:47:54.753792,15.19242911,.0009977,97.2612,244.0016,156.5327,203.6365,0,U,49387,999,26047,.68603E-4,.1382E-4,0
TEIKYOSAT-4 (OORURI),2021-102B,2026-07-17T00:22:54.172992,15.09602724,.0011907,97.3662,226.3399,182.2839,177.8339,0,U,49396,999,25722,.68995E-4,.1049E-4,0
Z-SAT,2021-102E,2026-07-17T04:24:12.704832,15.18468257,.0017767,97.3305,232.5972,138.0741,222.1858,0,U,49399,999,25799,.61715E-4,.121E-4,0
HIBARI,2021-102F,2026-07-17T02:47:28.197312,15.32303092,.0013286,97.3217,243.6868,95.7219,264.5538,0,U,49400,999,25877,.20158E-3,.6225E-4,0
KOSEN-1,2021-102H,2026-07-17T03:41:12.989184,15.27230151,.0015436,97.3168,239.7337,101.5078,258.7896,0,U,49402,999,25859,.14922E-3,.3921E-4,0
GLOBAL-14,2021-106A,2026-07-17T03:39:21.774240,15.51892004,.0018102,42.0039,112.8118,236.9921,122.9184,0,U,49469,999,26278,.25688E-3,.15618E-3,0
GAOFEN-3 02,2021-109A,2026-07-17T03:48:49.163040,14.42210450,.0001332,98.4088,205.8305,254.6220,105.4822,0,U,49495,999,24463,-.37394E-4,-.167E-5,0
GLOBAL-12,2021-115BA,2026-07-16T10:55:12.126144,15.55381310,.0002904,53.1939,263.6186,72.6908,287.4421,0,U,49772,999,26045,.28962E-3,.1961E-3,0
GLOBAL-13,2021-115BB,2026-07-16T20:17:03.579648,15.47150187,.0000412,53.1966,273.4810,151.3448,208.7584,0,U,49773,999,26035,.22422E-3,.11145E-3,0
GLOBAL-17,2021-120A,2026-07-17T02:53:37.968576,15.53779351,.0013413,41.9927,230.7142,105.8635,254.3689,0,U,49949,999,25955,.24341E-3,.15796E-3,0
GLOBAL-16,2021-120B,2026-07-17T04:13:09.519168,15.51538243,.0011438,41.9931,234.6972,95.8217,264.3932,0,U,49950,999,25950,.22465E-3,.13385E-3,0
XW-3 (CAS-9),2021-131B,2026-07-17T04:22:26.240160,14.41382239,.0004454,98.4993,290.4101,25.5674,334.5735,0,U,50466,999,23943,.46833E-4,.108E-5,0
ION SCV-004,2022-002K,2026-07-17T04:14:58.699392,15.30719501,.000581,97.2812,255.2748,238.1640,121.9036,0,U,50993,999,24988,.92627E-4,.2676E-4,0
ETV-A1,2022-002CE,2026-07-17T03:27:23.811840,15.41259493,.0004106,97.2859,264.3728,216.8204,143.2762,0,U,51060,999,25045,.15788E-3,.6482E-4,0
BRO-5,2022-002CF,2026-07-17T04:14:00.347424,15.48955924,.0005596,97.2982,272.1435,196.0196,164.0879,0,U,51061,999,25089,.33523E-3,.18045E-3,0
LUDI TANCE 1-01A (L-SAR 01A),2022-007A,2026-07-17T03:56:38.575104,14.88409973,.0001609,97.8106,205.1589,90.9938,269.1464,0,U,51284,999,24293,.34134E-4,.262E-5,0
LUDI TANCE 1-01B (L-SAR 01B),2022-018A,2026-07-17T04:45:03.489120,14.88415136,.0001648,97.8111,205.1904,91.5531,268.5874,0,U,51822,999,23817,.31051E-4,.234E-5,0
2022-023F,2022-023F,2026-07-16T22:07:37.463232,15.17855551,.01333,63.4451,172.3989,341.6465,17.9860,0,U,51951,999,24222,.36893E-3,.9233E-4,0
MERIDIAN 10,2022-030A,2026-07-16T09:06:38.562336,2.00609217,.6792223,62.6770,137.6440,272.8415,17.5982,0,U,52145,999,3161,0,.133E-5,0
OMNI-L1,2022-033A,2026-07-16T19:16:27.566976,14.82847708,.0005464,97.8390,276.4058,172.6003,187.5292,0,U,52157,999,23184,.11724E-3,.897E-5,0
ENMAP,2022-033C,2026-07-17T05:14:33.037152,14.74941421,.0001279,97.9794,280.0405,82.4102,277.7252,0,U,52159,999,23108,.94147E-5,.13E-6,0
ARCSAT-1,2022-033E,2026-07-17T04:44:07.921824,15.54310652,.0006324,97.2754,290.9314,91.7917,268.4061,0,U,52161,999,24036,.10778E-3,.695E-4,0
