FENGYUN 3E              
1 49008U 21062A   26198.15011600 -.00000086  00000+0 -19985-4 0  9993
2 49008  98.7496 201.2251 0002171  35.7785 324.3536 14.19905834260834
ISS (NAUKA)             
1 49044U 21066A   26198.18571856  .00003640  00000+0  74136-4 0  9990
2 49044  51.6315 151.6351 0006784 305.3594  54.6760 15.49030061575510
STARLINK-3100           
1 49144U 21082Q   26197.74846573  .00000608  00000+0  58786-4 0  9995
2 49144  70.0006 329.0431 0003131 271.3759  88.7041 14.98323421265313
CUTE                    
1 49263U 21088D   26197.83813593  .08921003  25505-5  41832-3 0  9994
2 49263  97.3907 300.4441 0014216 277.7997  82.1689 16.41647044267308
2021-091B               
1 49316U 21091B   26198.17219520  .00001421  00000+0  71741-4 0  9990
2 49316  97.4471  25.2924 0011871 300.4635  59.5426 15.18687302263531
SDGSAT 1                
1 49387U 21100A   26198.19993928  .00001382  00000+0  68603-4 0  9991
2 49387  97.2612 244.0016 0009977 156.5327 203.6365 15.19242911260477
TEIKYOSAT-4 (OORURI)    
1 49396U 21102B   26198.01590478  .00001049  00000+0  68995-4 0  9991
2 49396  97.3662 226.3399 0011907 182.2839 177.8339 15.09602724257223
Z-SAT                   
1 49399U 21102E   26198.18348038  .00001210  00000+0  61715-4 0  9998
2 49399  97.3305 232.5972 0017767 138.0741 222.1858 15.18468257257992
HIBARI                  
1 49400U 21102F   26198.11629858  .00006225  00000+0  20158-3 0  9992
2 49400  97.3217 243.6868 0013286  95.7219 264.5538 15.32303092258778
KOSEN-1                 
1 49402U 21102H   26198.15362256  .00003921  00000+0  14922-3 0  9996
2 49402  97.3168 239.7337 0015436 101.5078 258.7896 15.27230151258591
GLOBAL-14               
1 49469U 21106A   26198.15233535  .00015618  00000+0  25688-3 0  9997
2 49469  42.0039 112.8118 0018102 236.9921 122.9184 15.51892004262785
GAOFEN-3 02             
1 49495U 21109A   26198.15890235 -.00000167  00000+0 -37394-4 0  9998
2 49495  98.4088 205.8305 0001332 254.6220 105.4822 14.42210450244637
GLOBAL-12               
1 49772U 21115BA  26197.45500146  .00019610  00000+0  28962-3 0  9995
2 49772  53.1939 263.6186 0002904  72.6908 287.4421 15.55381310260457
GLOBAL-13               
1 49773U 21115BB  26197.84518032  .00011145  00000+0  22422-3 0  9992
2 49773  53.1966 273.4810 0000412 151.3448 208.7584 15.47150187260359
GLOBAL-17               
1 49949U 21120A   26198.12057834  .00015796  00000+0  24341-3 0  9991
2 49949  41.9927 230.7142 0013413 105.8635 254.3689 15.53779351259557
GLOBAL-16               
1 49950U 21120B   26198.17580462  .00013385  00000+0  22465-3 0  9993
2 49950  41.9931 234.6972 0011438  95.8217 264.3932 15.51538243259505
XW-3 (CAS-9)            
1 50466U 21131B   26198.18224815  .00000108  00000+0  46833-4 0  9992
2 50466  98.4993 290.4101 0004454  25.5674 334.5735 14.41382239239436
ION SCV-004             
1 50993U 22002K   26198.17706828  .00002676  00000+0  92627-4 0  9997
2 50993  97.2812 255.2748 0005810 238.1640 121.9036 15.30719501249883
ETV-A1                  
1 51060U 22002CE  26198.14402560  .00006482  00000+0  15788-3 0  9997
2 51060  97.2859 264.3728 0004106 216.8204 143.2762 15.41259493250454
BRO-5                   
1 51061U 22002CF  26198.17639291  .00018045  00000+0  33523-3 0  9999
2 51061  97.2982 272.1435 0005596 196.0196 164.0879 15.48955924250894
LUDI TANCE 1-01A (L-SA*)
1 51284U 22007A   26198.16433536  .00000262  00000+0  34134-4 0  9996
2 51284  97.8106 205.1589 0001609  90.9938 269.1464 14.88409973242932
LUDI TANCE 1-01B (L-SA*)
1 51822U 22018A   26198.19795705  .00000234  00000+0  31051-4 0  9992
2 51822  97.8111 205.1904 0001648  91.5531 268.5874 14.88415136238173
2022-023F               
1 51951U 22023F   26197.92196138  .00009233  00000+0  36893-3 0  9992
2 51951  63.4451 172.3989 0133300 341.6465  17.9860 15.17855551242220
MERIDIAN 10             
1 52145U 22030A   26197.37961299  .00000133  00000+0  00000+0 0  9990
2 52145  62.6770 137.6440 6792223 272.8415  17.5982  2.00609217 31612
OMNI-L1                 
1 52157U 22033A   26197.80309684  .00000897  00000+0  11724-3 0  9994
2 52157  97.8390 276.4058 0005464 172.6003 187.5292 14.82847708231849
ENMAP                   
1 52159U 22033C   26198.21843793  .00000013  00000+0  94147-5 0  9998
2 52159  97.9794 280.0405 0001279  82.4102 277.7252 14.74941421231087
ARCSAT-1                
1 52161U 22033E   26198.19731391  .00006950  00000+0  10778-3 0  9990
2 52161  97.2754 290.9314 0006324  91.7917 268.4061 15.54310652240362
